{"type":"FeatureCollection","features":[{"type":"Feature","geometry":{"type":"MultiPolygon","coordinates":[[[[6.933479903599929,51.039293713992976],[6.933478983587491,51.03931438399254],[6.9335074935971805,51.0393148939992],[6.933508413609608,51.03929422399961],[6.933479903599929,51.039293713992976]]]]},"properties":{"fid":11,"id":162041,"probleme":null,"fried_nr":"30","fried_name":"30 - Friedhof Rheinkassel","grabflur":"002","grabnummer":"16/17","grabart":"Zweistellige Wahlgrabstätte","grabart_key":"3020","anzahl_grabstellen":2,"sperrung":null,"gkey":"85613","nachname":"Schmidt","vorname":"Peter","geburtsdatum":"1921-02-10Z","sterbedatum":"2001-08-05Z","satzschluessel":"002:16/17","grabstaette_status":"preprocessed","bestattungsart":"Sarg"},"id":162041}]}